{
  "norad_id": 63974,
  "name": "STARLINK-33942",
  "history": [
    {
      "epoch": "2026-03-28T15:32:37.619232Z",
      "apogee_km": 483.91236869466866,
      "perigee_km": 482.1325839265128,
      "latitude_deg": -3.718884582930393e-06,
      "longitude_deg": 6.6388529166698875,
      "height_km": 482.69155878044387,
      "semi_major_axis_km": 6861.15947631059,
      "eccentricity": 0.0001297,
      "inclination_deg": 43.0007,
      "raan_deg": 65.8607,
      "arg_perigee_deg": 276.946,
      "mean_anomaly_deg": 83.1244,
      "mean_motion_rev_day": 15.2758889
    },
    {
      "epoch": "2026-03-29T05:40:01.927488Z",
      "apogee_km": 483.2747821092107,
      "perigee_km": 482.64081694973356,
      "latitude_deg": -4.8788897159037796e-05,
      "longitude_deg": 150.88269222543562,
      "height_km": 482.74955744554023,
      "semi_major_axis_km": 6861.094799529472,
      "eccentricity": 4.62e-05,
      "inclination_deg": 42.9984,
      "raan_deg": 62.5359,
      "arg_perigee_deg": 267.0938,
      "mean_anomaly_deg": 92.986,
      "mean_motion_rev_day": 15.2761049
    },
    {
      "epoch": "2026-03-29T22:55:45.077376Z",
      "apogee_km": 483.69976693306944,
      "perigee_km": 482.33055540778605,
      "latitude_deg": 9.04126463306213e-06,
      "longitude_deg": -112.81836151148552,
      "height_km": 482.98300187059334,
      "semi_major_axis_km": 6861.1521611704275,
      "eccentricity": 9.978e-05,
      "inclination_deg": 43.0003,
      "raan_deg": 58.4735,
      "arg_perigee_deg": 253.7551,
      "mean_anomaly_deg": 106.3191,
      "mean_motion_rev_day": 15.27591333
    },
    {
      "epoch": "2026-03-30T14:37:18.945984Z",
      "apogee_km": 483.97633990103986,
      "perigee_km": 481.94792455358856,
      "latitude_deg": 1.6706209013420713e-05,
      "longitude_deg": 7.455850203791239,
      "height_km": 482.6610958957697,
      "semi_major_axis_km": 6861.099132227314,
      "eccentricity": 0.00014782,
      "inclination_deg": 43.0032,
      "raan_deg": 54.7833,
      "arg_perigee_deg": 274.42,
      "mean_anomaly_deg": 85.6483,
      "mean_motion_rev_day": 15.27609043
    },
    {
      "epoch": "2026-03-30T22:28:06.163680Z",
      "apogee_km": 483.81158162371594,
      "perigee_km": 482.3463003473589,
      "latitude_deg": -2.0945030725897192e-05,
      "longitude_deg": -112.4104721923907,
      "height_km": 482.95001944191586,
      "semi_major_axis_km": 6861.215940985537,
      "eccentricity": 0.00010678,
      "inclination_deg": 43.0022,
      "raan_deg": 52.936,
      "arg_perigee_deg": 262.5944,
      "mean_anomaly_deg": 97.4786,
      "mean_motion_rev_day": 15.27570033
    },
    {
      "epoch": "2026-03-31T14:09:40.127328Z",
      "apogee_km": 484.19652781881723,
      "perigee_km": 481.76906363508806,
      "latitude_deg": -3.4880291661536895e-06,
      "longitude_deg": 7.86055305728649,
      "height_km": 482.719307149001,
      "semi_major_axis_km": 6861.119795726952,
      "eccentricity": 0.0001769,
      "inclination_deg": 43.0033,
      "raan_deg": 49.243,
      "arg_perigee_deg": 271.9291,
      "mean_anomaly_deg": 88.1358,
      "mean_motion_rev_day": 15.27602142
    },
    {
      "epoch": "2026-04-01T13:42:01.021824Z",
      "apogee_km": 484.198179477793,
      "perigee_km": 481.79129446446314,
      "latitude_deg": -1.6612036107512006e-05,
      "longitude_deg": 8.2680619220506,
      "height_km": 482.62052158374513,
      "semi_major_axis_km": 6861.131736971128,
      "eccentricity": 0.0001754,
      "inclination_deg": 43.0038,
      "raan_deg": 43.7043,
      "arg_perigee_deg": 277.2386,
      "mean_anomaly_deg": 82.8266,
      "mean_motion_rev_day": 15.27598154
    },
    {
      "epoch": "2026-04-02T21:05:08.275200Z",
      "apogee_km": 484.6656051866139,
      "perigee_km": 481.18334204629355,
      "latitude_deg": 1.3828055518701619e-05,
      "longitude_deg": -111.18627732359519,
      "height_km": 482.2481925488812,
      "semi_major_axis_km": 6861.061473616453,
      "eccentricity": 0.00025377,
      "inclination_deg": 43.0008,
      "raan_deg": 36.3191,
      "arg_perigee_deg": 285.112,
      "mean_anomaly_deg": 74.9451,
      "mean_motion_rev_day": 15.2762162
    },
    {
      "epoch": "2026-04-03T20:37:29.690688Z",
      "apogee_km": 483.8405815404485,
      "perigee_km": 482.4902772223468,
      "latitude_deg": -2.8963218079746598e-06,
      "longitude_deg": -110.78075030244214,
      "height_km": 482.52311585125835,
      "semi_major_axis_km": 6861.302429381398,
      "eccentricity": 9.84e-05,
      "inclination_deg": 43.0008,
      "raan_deg": 30.7806,
      "arg_perigee_deg": 308.319,
      "mean_anomaly_deg": 51.7573,
      "mean_motion_rev_day": 15.2754115
    }
  ]
}